PROBA-1                 
1 26958U 01049B   26181.87639395  .00001443  00000+0  96105-4 0  9998
2 26958  97.9598 190.8868 0056735  77.1319 283.6237 15.07553757345685
CUTE-1 (CO-55)          
1 27844U 03031E   26180.96278102  .00000311  00000+0  15340-3 0  9994
2 27844  98.6736 189.3610 0010300 142.4898 217.7002 14.24343456193495
CUBESAT XI-IV (CO-57)   
1 27848U 03031J   26180.95765288  .00000265  00000+0  13524-3 0  9993
2 27848  98.6768 189.0585 0009785 160.0224 200.1339 14.23627529193197
APRIZESAT 4             
1 35684U 09041D   26181.67588131  .00000667  00000+0  86160-4 0  9990
2 35684  98.1410 257.2651 0041892 278.0919  81.5543 14.83896456913361
APRIZESAT 3             
1 35686U 09041F   26181.40687672  .00000823  00000+0  75961-4 0  9994
2 35686  98.2077 335.2653 0062166  24.4362 335.9783 14.96276948918352
PROBA-2                 
1 36037U 09059B   26181.51414041  .00000189  00000+0  54441-4 0  9999
2 36037  98.2451   4.6822 0012136 236.5404 123.4633 14.54868053883464
APRIZESAT 5             
1 37792U 11044E   26181.38378553  .00001075  00000+0  14293-3 0  9992
2 37792  98.2451 114.7984 0051301 321.5684  38.1878 14.81103393800749
APRIZESAT 6             
1 37793U 11044F   26181.30157725  .00000823  00000+0  12307-3 0  9995
2 37793  98.2354  92.0685 0044129  45.2799  76.8723 14.76935873799087
PROBA-V                 
1 39159U 13021A   26181.47324500  .00000090  00000+0  57482-4 0  9995
2 39159  98.3593 159.4244 0005435  93.1429 267.0372 14.23600179683007
APRIZESAT 7             
1 39416U 13066A   26181.83926749  .00001062  00000+0  11028-3 0  9998
2 39416  97.7714 134.8633 0036182 163.6928 196.5464 14.91592059683268
APRIZESAT 8             
1 39425U 13066K   26181.79540328  .00000852  00000+0  98132-4 0  9996
2 39425  97.8225 129.0740 0044501 240.2709 119.4076 14.87675981681693
BUGSAT-1 (TITA)         
1 40014U 14033E   26181.83432777  .00005694  00000+0  29949-3 0  9998
2 40014  98.0437 275.1823 0028973 132.5024 227.8662 15.15735894657904
SAUDISAT 4              
1 40016U 14033G   26181.64467742  .00000588  00000+0  84082-4 0  9996
2 40016  97.7599 327.3149 0045459  31.2549 329.1352 14.79561163648061
APRIZESAT 9             
1 40018U 14033J   26181.30728353  .00000803  00000+0  12497-3 0  9999
2 40018  97.9077 314.1862 0066703 157.0375 203.3840 14.74233565645497
APRIZESAT 10            
1 40019U 14033K   26181.32395548  .00000583  00000+0  99304-4 0  9996
2 40019  97.9666 307.9915 0077710 231.1992 128.2258 14.70895441644186
TECHDEMOSAT-1 (TDS-1)   
1 40076U 14037H   26181.71270266  .00008282  00000+0  46675-3 0  9991
2 40076  98.3812 175.2680 0005441 206.6786 153.4163 15.13491107650273
TECHNOSAT               
1 42829U 17042E   26181.74614094  .00002365  00000+0  17006-3 0  9994
2 42829  97.4293 338.8895 0018850  51.4773 308.8140 15.05036273488741
FLYING LAPTOP           
1 42831U 17042G   26181.84996600  .00002982  00000+0  23574-3 0  9996
2 42831  97.4744 336.8616 0019957  77.9403 282.4057 15.01231687488506
HAWK-A                  
1 43765U 18099H   26181.60500432  .00006391  00000+0  25659-3 0  9998
2 43765  97.3905 233.6665 0033410 236.3390 123.4660 15.24796873415147
HAWK-B                  
1 43794U 18099AN  26181.57686838  .00005679  00000+0  24180-3 0  9997
2 43794  97.3953 233.0256 0030319 255.3153 104.4722 15.22965155415074
HAWK-C                  
1 43799U 18099AT  26181.74750015  .00007882  00000+0  28238-3 0  9996
2 43799  97.3881 234.7864 0039042 235.7499 124.0041 15.28289451415985
SALSAT                  
1 46495U 20068K   26181.48833811  .00007517  00000+0  26165-3 0  9990
2 46495  97.8843 185.3641 0007929 251.0233 109.0147 15.29983096317397
HAWK-2C                 
1 47502U 21006CT  26181.71389247  .00006671  00000+0  19969-3 0  9992
2 47502  97.2268 225.7545 0008033 142.5145 217.6661 15.34825072301572
HAWK-2A                 
1 47505U 21006CW  26181.71625522  .00006540  00000+0  19579-3 0  9996
2 47505  97.2309 226.4425 0007498 145.2826 214.8908 15.34838978301578
HAWK-2B                 
1 47508U 21006CZ  26181.71092962  .00007412  00000+0  22074-3 0  9998
2 47508  97.2178 224.7473 0008089 143.9188 216.2603 15.34948799301573
HAWK-3B                 
1 48931U 21059BE  26181.45313296  .00040404  00000+0  32759-3 0  9993
2 48931  97.6640  19.4261 0003270 261.1542  98.9350 15.70661718279931
HAWK-3C                 
1 48948U 21059BX  26181.07054543  .00041719  00000+0  33853-3 0  9992
2 48948  97.6764  24.7146 0003515 264.4956  95.5905 15.70634821279871
HAWK-3A                 
1 48957U 21059CG  26181.51639679  .00042008  00000+0  34048-3 0  9999
2 48957  97.6702  22.3981 0003467 264.4395  95.6471 15.70661079279949
HAWK-5C                 
1 52754U 22057Y   26181.39383176  .00016310  00000+0  27407-3 0  9990
2 52754  97.6608 341.9170 0004086  38.9735 321.1810 15.51846590228393
HAWK-5B                 
1 52756U 22057AA  26181.39365847  .00016573  00000+0  27838-3 0  9996
2 52756  97.6618 340.2672 0004683  30.5249 329.6274 15.51851030228398
